[{"OBJECT_NAME":"RISAT-2B","OBJECT_ID":"2019-028A","EPOCH":"2026-03-09T20:41:11.920992","MEAN_MOTION":15.01650685,"ECCENTRICITY":0.00079997,"INCLINATION":36.9961,"RA_OF_ASC_NODE":222.9871,"ARG_OF_PERICENTER":294.4328,"MEAN_ANOMALY":65.558,"EPHEMERIS_TYPE":0,"CLASSIFICATION_TYPE":"U","NORAD_CAT_ID":44233,"ELEMENT_SET_NO":999,"REV_AT_EPOCH":37289,"BSTAR":0.00037049954,"MEAN_MOTION_DOT":4.829e-5,"MEAN_MOTION_DDOT":0},{"OBJECT_NAME":"STARLINK-35300","OBJECT_ID":"2025-218K","EPOCH":"2026-03-09T14:36:36.673056","MEAN_MOTION":15.05644729,"ECCENTRICITY":0.0003216,"INCLINATION":97.6001,"RA_OF_ASC_NODE":292.813,"ARG_OF_PERICENTER":82.1901,"MEAN_ANOMALY":277.969,"EPHEMERIS_TYPE":0,"CLASSIFICATION_TYPE":"U","NORAD_CAT_ID":65800,"ELEMENT_SET_NO":999,"REV_AT_EPOCH":2495,"BSTAR":0.00014881,"MEAN_MOTION_DOT":2.087e-5,"MEAN_MOTION_DDOT":0}]
